{"type": "FeatureCollection", "features": [ {"type": "Feature", "properties": {"norad_id": 34911, "name": "COSMOS 2251 DEB", "group": "cosmos-2251-debris", "lat": -44.964465867954026, "lon": -158.51954025826214, "alt_km": 648.4515115995155, "timestamp": "2025-12-26T17:24:55.115053+00:00", "meta": {"OBJECT_NAME": "COSMOS 2251 DEB", "OBJECT_ID": "1993-036ADG", "EPOCH": "2025-12-26T01:52:35.742144", "MEAN_MOTION": 14.59390445, "ECCENTRICITY": 0.00842059, "INCLINATION": 74.0393, "RA_OF_ASC_NODE": 219.323, "ARG_OF_PERICENTER": 341.4186, "MEAN_ANOMALY": 171.635, "EPHEMERIS_TYPE": 0, "CLASSIFICATION_TYPE": "U", "NORAD_CAT_ID": 34911, "ELEMENT_SET_NO": 999, "REV_AT_EPOCH": 88781, "BSTAR": 0.00010844477, "MEAN_MOTION_DOT": 5.07e-06, "MEAN_MOTION_DDOT": 0}, "tle": {"line1": "1 34911U 93036ADG 25360.07819146  .00000507  00000+0  10844-3 0  9992", "line2": "2 34911  74.0393 219.3230 0084205 341.4186 171.6350 14.59390445887811"}}, "geometry": {"type": "Point", "coordinates": [-158.51954025826214, -44.964465867954026]}}, {"type": "Feature", "properties": {"norad_id": 34913, "name": "COSMOS 2251 DEB", "group": "cosmos-2251-debris", "lat": 26.991729965278974, "lon": 68.48095588111613, "alt_km": 787.5837116985149, "timestamp": "2025-12-26T17:24:55.115063+00:00", "meta": {"OBJECT_NAME": "COSMOS 2251 DEB", "OBJECT_ID": "1993-036ADJ", "EPOCH": "2025-12-25T11:24:46.560096", "MEAN_MOTION": 14.34641195, "ECCENTRICITY": 0.0020873, "INCLINATION": 74.0281, "RA_OF_ASC_NODE": 259.159, "ARG_OF_PERICENTER": 5.6867, "MEAN_ANOMALY": 172.1148, "EPHEMERIS_TYPE": 0, "CLASSIFICATION_TYPE": "U", "NORAD_CAT_ID": 34913, "ELEMENT_SET_NO": 999, "REV_AT_EPOCH": 65370, "BSTAR": 4.8442e-05, "MEAN_MOTION_DOT": 1.11e-06, "MEAN_MOTION_DDOT": 0}, "tle": {"line1": "1 34913U 93036ADJ 25359.47553889  .00000111  00000+0  48442-4 0  9992", "line2": "2 34913  74.0281 259.1590 0020873   5.6867 172.1148 14.34641195653700"}}, "geometry": {"type": "Point", "coordinates": [68.48095588111613, 26.991729965278974]}}, {"type": "Feature", "properties": {"norad_id": 34918, "name": "COSMOS 2251 DEB", "group": "cosmos-2251-debris", "lat": -18.73121743596994, "lon": 112.4982912192053, "alt_km": 679.1414756825907, "timestamp": "2025-12-26T17:24:55.115072+00:00", "meta": {"OBJECT_NAME": "COSMOS 2251 DEB", "OBJECT_ID": "1993-036ADP", "EPOCH": "2025-12-25T13:22:56.208000", "MEAN_MOTION": 14.61407505, "ECCENTRICITY": 0.0032745, "INCLINATION": 74.0712, "RA_OF_ASC_NODE": 289.1692, "ARG_OF_PERICENTER": 254.3817, "MEAN_ANOMALY": 282.6516, "EPHEMERIS_TYPE": 0, "CLASSIFICATION_TYPE": "U", "NORAD_CAT_ID": 34918, "ELEMENT_SET_NO": 999, "REV_AT_EPOCH": 65523, "BSTAR": 0.0018027, "MEAN_MOTION_DOT": 8.971e-05, "MEAN_MOTION_DDOT": 0}, "tle": {"line1": "1 34918U 93036ADP 25359.55759500  .00008971  00000+0  18027-2 0  9990", "line2": "2 34918  74.0712 289.1692 0032745 254.3817 282.6516 14.61407505655230"}}, "geometry": {"type": "Point", "coordinates": [112.4982912192053, -18.73121743596994]}}, {"type": "Feature", "properties": {"norad_id": 34924, "name": "COSMOS 2251 DEB", "group": "cosmos-2251-debris", "lat": 43.463229294623034, "lon": -132.9735871100152, "alt_km": 651.5483888957488, "timestamp": "2025-12-26T17:24:55.115082+00:00", "meta": {"OBJECT_NAME": "COSMOS 2251 DEB", "OBJECT_ID": "1993-036ADV", "EPOCH": "2025-12-25T15:10:33.634272", "MEAN_MOTION": 14.60138002, "ECCENTRICITY": 0.0053304, "INCLINATION": 74.0404, "RA_OF_ASC_NODE": 64.8485, "ARG_OF_PERICENTER": 146.1764, "MEAN_ANOMALY": 3.5611, "EPHEMERIS_TYPE": 0, "CLASSIFICATION_TYPE": "U", "NORAD_CAT_ID": 34924, "ELEMENT_SET_NO": 999, "REV_AT_EPOCH": 87911, "BSTAR": 0.00084049, "MEAN_MOTION_DOT": 4.099e-05, "MEAN_MOTION_DDOT": 0}, "tle": {"line1": "1 34924U 93036ADV 25359.63233373  .00004099  00000+0  84049-3 0  9996", "line2": "2 34924  74.0404  64.8485 0053304 146.1764   3.5611 14.60138002879119"}}, "geometry": {"type": "Point", "coordinates": [-132.9735871100152, 43.463229294623034]}}, {"type": "Feature", "properties": {"norad_id": 34944, "name": "COSMOS 2251 DEB", "group": "cosmos-2251-debris", "lat": 73.36656685749256, "lon": -50.74632211826128, "alt_km": 717.0359424197623, "timestamp": "2025-12-26T17:24:55.115092+00:00", "meta": {"OBJECT_NAME": "COSMOS 2251 DEB", "OBJECT_ID": "1993-036ADX", "EPOCH": "2025-12-26T06:48:20.330496", "MEAN_MOTION": 14.14210823, "ECCENTRICITY": 0.02200973, "INCLINATION": 73.7465, "RA_OF_ASC_NODE": 207.6023, "ARG_OF_PERICENTER": 52.8797, "MEAN_ANOMALY": 309.223, "EPHEMERIS_TYPE": 0, "CLASSIFICATION_TYPE": "U", "NORAD_CAT_ID": 34944, "ELEMENT_SET_NO": 999, "REV_AT_EPOCH": 64274, "BSTAR": 0.00040000329, "MEAN_MOTION_DOT": 9.36e-06, "MEAN_MOTION_DDOT": 0}, "tle": {"line1": "1 34944U 93036ADX 25360.28356864  .00000936  00000+0  40000-3 0  9997", "line2": "2 34944  73.7465 207.6023 0220097  52.8797 309.2230 14.14210823642744"}}, "geometry": {"type": "Point", "coordinates": [-50.74632211826128, 73.36656685749256]}}, {"type": "Feature", "properties": {"norad_id": 34946, "name": "COSMOS 2251 DEB", "group": "cosmos-2251-debris", "lat": 69.13210701031437, "lon": 4.037913806490895, "alt_km": 645.8604720911217, "timestamp": "2025-12-26T17:24:55.115102+00:00", "meta": {"OBJECT_NAME": "COSMOS 2251 DEB", "OBJECT_ID": "1993-036ADZ", "EPOCH": "2025-12-25T14:47:39.171840", "MEAN_MOTION": 14.62063555, "ECCENTRICITY": 0.0048508, "INCLINATION": 74.0243, "RA_OF_ASC_NODE": 317.4443, "ARG_OF_PERICENTER": 90.5194, "MEAN_ANOMALY": 270.1532, "EPHEMERIS_TYPE": 0, "CLASSIFICATION_TYPE": "U", "NORAD_CAT_ID": 34946, "ELEMENT_SET_NO": 999, "REV_AT_EPOCH": 88397, "BSTAR": 0.00064563, "MEAN_MOTION_DOT": 3.267e-05, "MEAN_MOTION_DDOT": 0}, "tle": {"line1": "1 34946U 93036ADZ 25359.61642560  .00003267  00000+0  64563-3 0  9995", "line2": "2 34946  74.0243 317.4443 0048508  90.5194 270.1532 14.62063555883979"}}, "geometry": {"type": "Point", "coordinates": [4.037913806490895, 69.13210701031437]}}, {"type": "Feature", "properties": {"norad_id": 34949, "name": "COSMOS 2251 DEB", "group": "cosmos-2251-debris", "lat": -36.920323404440474, "lon": -85.22987831763754, "alt_km": 598.1725239746056, "timestamp": "2025-12-26T17:24:55.115112+00:00", "meta": {"OBJECT_NAME": "COSMOS 2251 DEB", "OBJECT_ID": "1993-036AEC", "EPOCH": "2025-12-25T22:30:24.026112", "MEAN_MOTION": 14.74089192, "ECCENTRICITY": 0.0079963, "INCLINATION": 74.0186, "RA_OF_ASC_NODE": 83.8736, "ARG_OF_PERICENTER": 226.4237, "MEAN_ANOMALY": 133.028, "EPHEMERIS_TYPE": 0, "CLASSIFICATION_TYPE": "U", "NORAD_CAT_ID": 34949, "ELEMENT_SET_NO": 999, "REV_AT_EPOCH": 88556, "BSTAR": 0.00052427, "MEAN_MOTION_DOT": 3.601e-05, "MEAN_MOTION_DDOT": 0}, "tle": {"line1": "1 34949U 93036AEC 25359.93777808  .00003601  00000+0  52427-3 0  9995", "line2": "2 34949  74.0186  83.8736 0079963 226.4237 133.0280 14.74089192885566"}}, "geometry": {"type": "Point", "coordinates": [-85.22987831763754, -36.920323404440474]}}, {"type": "Feature", "properties": {"norad_id": 34953, "name": "COSMOS 2251 DEB", "group": "cosmos-2251-debris", "lat": -56.12712754193843, "lon": -24.632647819045353, "alt_km": 642.9707881341646, "timestamp": "2025-12-26T17:24:55.115123+00:00", "meta": {"OBJECT_NAME": "COSMOS 2251 DEB", "OBJECT_ID": "1993-036AEG", "EPOCH": "2025-12-26T01:35:55.790880", "MEAN_MOTION": 14.69079682, "ECCENTRICITY": 0.00588791, "INCLINATION": 74.0933, "RA_OF_ASC_NODE": 1.7774, "ARG_OF_PERICENTER": 350.1038, "MEAN_ANOMALY": 66.8567, "EPHEMERIS_TYPE": 0, "CLASSIFICATION_TYPE": "U", "NORAD_CAT_ID": 34953, "ELEMENT_SET_NO": 999, "REV_AT_EPOCH": 88324, "BSTAR": 0.00094981376, "MEAN_MOTION_DOT": 5.7e-05, "MEAN_MOTION_DDOT": 0}, "tle": {"line1": "1 34953U 93036AEG 25360.06661795  .00005700  00000+0  94981-3 0  9996", "line2": "2 34953  74.0933   1.7774 0058879 350.1038  66.8567 14.69079682883240"}}, "geometry": {"type": "Point", "coordinates": [-24.632647819045353, -56.12712754193843]}}, {"type": "Feature", "properties": {"norad_id": 34955, "name": "COSMOS 2251 DEB", "group": "cosmos-2251-debris", "lat": -42.97624592406672, "lon": 53.52096903082011, "alt_km": 543.0154128866034, "timestamp": "2025-12-26T17:24:55.115132+00:00", "meta": {"OBJECT_NAME": "COSMOS 2251 DEB", "OBJECT_ID": "1993-036AEJ", "EPOCH": "2025-12-24T22:48:41.659488", "MEAN_MOTION": 15.00737642, "ECCENTRICITY": 0.00777361, "INCLINATION": 74.035, "RA_OF_ASC_NODE": 221.6616, "ARG_OF_PERICENTER": 288.4914, "MEAN_ANOMALY": 70.7836, "EPHEMERIS_TYPE": 0, "CLASSIFICATION_TYPE": "U", "NORAD_CAT_ID": 34955, "ELEMENT_SET_NO": 999, "REV_AT_EPOCH": 90217, "BSTAR": 0.00061621674, "MEAN_MOTION_DOT": 8.298e-05, "MEAN_MOTION_DDOT": 0}, "tle": {"line1": "1 34955U 93036AEJ 25358.95048217  .00008298  00000+0  61622-3 0  9992", "line2": "2 34955  74.0350 221.6616 0077736 288.4914  70.7836 15.00737642902172"}}, "geometry": {"type": "Point", "coordinates": [53.52096903082011, -42.97624592406672]}}, {"type": "Feature", "properties": {"norad_id": 34962, "name": "COSMOS 2251 DEB", "group": "cosmos-2251-debris", "lat": 6.149498816594712, "lon": -14.528718418999198, "alt_km": 742.2462063236726, "timestamp": "2025-12-26T17:24:55.115142+00:00", "meta": {"OBJECT_NAME": "COSMOS 2251 DEB", "OBJECT_ID": "1993-036AER", "EPOCH": "2025-12-24T21:27:34.403616", "MEAN_MOTION": 14.46552409, "ECCENTRICITY": 0.0018915, "INCLINATION": 74.0287, "RA_OF_ASC_NODE": 170.6598, "ARG_OF_PERICENTER": 282.7442, "MEAN_ANOMALY": 77.1602, "EPHEMERIS_TYPE": 0, "CLASSIFICATION_TYPE": "U", "NORAD_CAT_ID": 34962, "ELEMENT_SET_NO": 999, "REV_AT_EPOCH": 87754, "BSTAR": 0.00044037, "MEAN_MOTION_DOT": 1.563e-05, "MEAN_MOTION_DDOT": 0}, "tle": {"line1": "1 34962U 93036AER 25358.89414819  .00001563  00000+0  44037-3 0  9997", "line2": "2 34962  74.0287 170.6598 0018915 282.7442  77.1602 14.46552409877547"}}, "geometry": {"type": "Point", "coordinates": [-14.528718418999198, 6.149498816594712]}}]}